[{"OBJECT_NAME":"YAOGAN-30 05B","OBJECT_ID":"2018-011C","EPOCH":"2026-03-09T22:52:34.937760","MEAN_MOTION":15.02097859,"ECCENTRICITY":0.00016704,"INCLINATION":34.9964,"RA_OF_ASC_NODE":35.2967,"ARG_OF_PERICENTER":216.2291,"MEAN_ANOMALY":143.8304,"EPHEMERIS_TYPE":0,"CLASSIFICATION_TYPE":"U","NORAD_CAT_ID":43171,"ELEMENT_SET_NO":999,"REV_AT_EPOCH":44328,"BSTAR":0.00032774516,"MEAN_MOTION_DOT":4.367e-5,"MEAN_MOTION_DDOT":0},{"OBJECT_NAME":"NOAA 16 DEB","OBJECT_ID":"2000-055BZ","EPOCH":"2026-03-09T09:57:46.840608","MEAN_MOTION":15.04968987,"ECCENTRICITY":0.00133628,"INCLINATION":98.8453,"RA_OF_ASC_NODE":286.076,"ARG_OF_PERICENTER":194.204,"MEAN_ANOMALY":165.8809,"EPHEMERIS_TYPE":0,"CLASSIFICATION_TYPE":"U","NORAD_CAT_ID":41142,"ELEMENT_SET_NO":999,"REV_AT_EPOCH":53866,"BSTAR":0.0051237154,"MEAN_MOTION_DOT":0.00073426,"MEAN_MOTION_DDOT":0}]
